SINOD-D 1               
1 40968U 15058E   26068.70671034  .00006216  00000+0  50695-3 0  9998
2 40968  64.7759 210.2419 0117280  93.1753 268.2787 14.95054547101784
STARLINK-4485           
1 53541U 22101Q   26068.98196273  .00000774  00000+0  66703-4 0  9994
2 53541  53.2172  72.8109 0001256  91.2812 268.8324 15.08837910196904
